start=new Date('2021-09-23T00:00:00.000Z').valueOf();
sats=[{"SEMIMAJOR_AXIS":"6921.696","ELEMENT_SET_NO":"999","ECCENTRICITY":"0.00003910","GP_ID":"185266136","PERIOD":"95.517","EPHEMERIS_TYPE":"0","MEAN_ANOMALY":"23.5716","APOAPSIS":"543.832","RCS_SIZE":"LARGE","FILE":"3123736","RA_OF_ASC_NODE":"256.8037","LAUNCH_DATE":"2020-03-18","CLASSIFICATION_TYPE":"U","BSTAR":"0.00017516000000","PERIAPSIS":"543.291","EPOCH":"2021-09-22T16:23:56.920416","MEAN_MOTION":"15.07592495","DECAY_DATE":null,"COUNTRY_CODE":"US","TIME_SYSTEM":"UTC","MEAN_MOTION_DDOT":"0.0000000000000","OBJECT_TYPE":"PAYLOAD","OBJECT_ID":"2020-019AJ","NORAD_CAT_ID":"45392","TLE_LINE2":"2 45392  52.9929 256.8037 0000391 336.5255  23.5716 15.07592495 84210","TLE_LINE1":"1 45392U 20019AJ  21265.68329769  .00002411  00000-0  17516-3 0  9992","REF_FRAME":"TEME","SITE":"AFETR","ARG_OF_PERICENTER":"336.5255","INCLINATION":"52.9929","CENTER_NAME":"EARTH","MEAN_MOTION_DOT":"0.00002411","REV_AT_EPOCH":"8421","MEAN_ELEMENT_THEORY":"SGP4","OBJECT_NAME":"STARLINK-1290"},{"OBJECT_TYPE":"PAYLOAD","MEAN_MOTION_DDOT":"0.0000000000000","TIME_SYSTEM":"UTC","TLE_LINE2":"2 45393  53.0536 259.3807 0001050  58.4832 301.6259 15.06396193 84245","NORAD_CAT_ID":"45393","OBJECT_ID":"2020-019AK","ARG_OF_PERICENTER":"58.4832","INCLINATION":"53.0536","TLE_LINE1":"1 45393U 20019AK  21265.71514453 -.00000903  00000-0 -41775-4 0  9994","REF_FRAME":"TEME","SITE":"AFETR","MEAN_ELEMENT_THEORY":"SGP4","OBJECT_NAME":"STARLINK-1291","CENTER_NAME":"EARTH","MEAN_MOTION_DOT":"-0.00000903","REV_AT_EPOCH":"8424","GP_ID":"185265886","ECCENTRICITY":"0.00010500","ELEMENT_SET_NO":"999","SEMIMAJOR_AXIS":"6925.360","APOAPSIS":"547.952","RCS_SIZE":"LARGE","EPHEMERIS_TYPE":"0","MEAN_ANOMALY":"301.6259","PERIOD":"95.592","RA_OF_ASC_NODE":"259.3807","FILE":"3123736","DECAY_DATE":null,"COUNTRY_CODE":"US","MEAN_MOTION":"15.06396193","PERIAPSIS":"546.498","EPOCH":"2021-09-22T17:09:48.487392","CLASSIFICATION_TYPE":"U","BSTAR":"-0.00004177500000","LAUNCH_DATE":"2020-03-18"},{"SEMIMAJOR_AXIS":"6925.347","ELEMENT_SET_NO":"999","ECCENTRICITY":"0.00011370","GP_ID":"185267137","PERIOD":"95.592","MEAN_ANOMALY":"292.9562","EPHEMERIS_TYPE":"0","APOAPSIS":"548.000","RCS_SIZE":"LARGE","RA_OF_ASC_NODE":"259.5436","FILE":"3123736","LAUNCH_DATE":"2020-03-18","BSTAR":"0.00013137000000","CLASSIFICATION_TYPE":"U","EPOCH":"2021-09-22T16:16:44.319936","PERIAPSIS":"546.425","COUNTRY_CODE":"US","DECAY_DATE":null,"MEAN_MOTION":"15.06400399","TIME_SYSTEM":"UTC","MEAN_MOTION_DDOT":"0.0000000000000","OBJECT_TYPE":"PAYLOAD","OBJECT_ID":"2020-019AL","TLE_LINE2":"2 45394  53.0537 259.5436 0001137  67.1547 292.9562 15.06400399 84213","NORAD_CAT_ID":"45394","SITE":"AFETR","REF_FRAME":"TEME","TLE_LINE1":"1 45394U 20019AL  21265.67829074  .00001676  00000-0  13137-3 0  9994","INCLINATION":"53.0537","ARG_OF_PERICENTER":"67.1547","REV_AT_EPOCH":"8421","MEAN_MOTION_DOT":"0.00001676","CENTER_NAME":"EARTH","OBJECT_NAME":"STARLINK-1292","MEAN_ELEMENT_THEORY":"SGP4"},{"SEMIMAJOR_AXIS":"6925.355","ECCENTRICITY":"0.00007100","GP_ID":"185267365","ELEMENT_SET_NO":"999","EPHEMERIS_TYPE":"0","MEAN_ANOMALY":"302.0577","PERIOD":"95.592","RCS_SIZE":"LARGE","APOAPSIS":"547.711","RA_OF_ASC_NODE":"259.4145","FILE":"3123736","CLASSIFICATION_TYPE":"U","BSTAR":"0.00011740000000","LAUNCH_DATE":"2020-03-18","COUNTRY_CODE":"US","DECAY_DATE":null,"MEAN_MOTION":"15.06398018","PERIAPSIS":"546.728","EPOCH":"2021-09-22T16:59:11.591520","MEAN_MOTION_DDOT":"0.0000000000000","TIME_SYSTEM":"UTC","OBJECT_TYPE":"PAYLOAD","OBJECT_ID":"2020-019AM","TLE_LINE2":"2 45395  53.0540 259.4145 0000710  58.0481 302.0577 15.06398018 83667","NORAD_CAT_ID":"45395","TLE_LINE1":"1 45395U 20019AM  21265.70777305  .00001468  00000-0  11740-3 0  9995","REF_FRAME":"TEME","SITE":"AFETR","ARG_OF_PERICENTER":"58.0481","INCLINATION":"53.0540","CENTER_NAME":"EARTH","MEAN_MOTION_DOT":"0.00001468","REV_AT_EPOCH":"8366","MEAN_ELEMENT_THEORY":"SGP4","OBJECT_NAME":"STARLINK-1297"},{"APOAPSIS":"547.815","RCS_SIZE":"LARGE","MEAN_ANOMALY":"297.6233","EPHEMERIS_TYPE":"0","PERIOD":"95.592","GP_ID":"185265637","ECCENTRICITY":"0.00008670","ELEMENT_SET_NO":"999","SEMIMAJOR_AXIS":"6925.350","DECAY_DATE":null,"MEAN_MOTION":"15.06399521","COUNTRY_CODE":"US","EPOCH":"2021-09-22T16:32:39.346656","PERIAPSIS":"546.615","BSTAR":"0.00008600900000","CLASSIFICATION_TYPE":"U","LAUNCH_DATE":"2020-03-18","RA_OF_ASC_NODE":"259.4942","FILE":"3123736","NORAD_CAT_ID":"45396","TLE_LINE2":"2 45396  53.0533 259.4942 0000867  62.4844 297.6233 15.06399521 84197","OBJECT_ID":"2020-019AN","OBJECT_TYPE":"PAYLOAD","MEAN_MOTION_DDOT":"0.0000000000000","TIME_SYSTEM":"UTC","OBJECT_NAME":"STARLINK-1303","MEAN_ELEMENT_THEORY":"SGP4","REV_AT_EPOCH":"8419","MEAN_MOTION_DOT":"0.00001000","CENTER_NAME":"EARTH","INCLINATION":"53.0533","ARG_OF_PERICENTER":"62.4844","REF_FRAME":"TEME","SITE":"AFETR","TLE_LINE1":"1 45396U 20019AN  21265.68934429  .00001000  00000-0  86009-4 0  9998"},{"PERIOD":"95.592","EPHEMERIS_TYPE":"0","MEAN_ANOMALY":"303.6572","RCS_SIZE":"LARGE","APOAPSIS":"547.835","SEMIMAJOR_AXIS":"6925.354","ELEMENT_SET_NO":"999","ECCENTRICITY":"0.00008900","GP_ID":"185266386","LAUNCH_DATE":"2020-03-18","CLASSIFICATION_TYPE":"U","BSTAR":"-0.00003182800000","PERIAPSIS":"546.602","EPOCH":"2021-09-22T16:48:34.266240","COUNTRY_CODE":"US","DECAY_DATE":null,"MEAN_MOTION":"15.06398285","RA_OF_ASC_NODE":"259.4464","FILE":"3123736","OBJECT_ID":"2020-019AP","TLE_LINE2":"2 45397  53.0540 259.4464 0000890  56.4502 303.6572 15.06398285 84308","NORAD_CAT_ID":"45397","TIME_SYSTEM":"UTC","MEAN_MOTION_DDOT":"0.0000000000000","OBJECT_TYPE":"PAYLOAD","CENTER_NAME":"EARTH","MEAN_MOTION_DOT":"-0.00000755","REV_AT_EPOCH":"8430","MEAN_ELEMENT_THEORY":"SGP4","OBJECT_NAME":"STARLINK-1307","TLE_LINE1":"1 45397U 20019AP  21265.70039660 -.00000755  00000-0 -31828-4 0  9992","SITE":"AFETR","REF_FRAME":"TEME","ARG_OF_PERICENTER":"56.4502","INCLINATION":"53.0540"},{"OBJECT_ID":"2020-019AQ","TLE_LINE2":"2 45398  53.0531 259.4763 0001137  59.1107 300.9994 15.06389976 84234","NORAD_CAT_ID":"45398","TIME_SYSTEM":"UTC","MEAN_MOTION_DDOT":"0.0000000000000","OBJECT_TYPE":"PAYLOAD","CENTER_NAME":"EARTH","MEAN_MOTION_DOT":"0.00001107","REV_AT_EPOCH":"8423","MEAN_ELEMENT_THEORY":"SGP4","OBJECT_NAME":"STARLINK-1312","TLE_LINE1":"1 45398U 20019AQ  21265.69303084  .00001107  00000-0  93199-4 0  9994","REF_FRAME":"TEME","SITE":"AFETR","ARG_OF_PERICENTER":"59.1107","INCLINATION":"53.0531","PERIOD":"95.593","EPHEMERIS_TYPE":"0","MEAN_ANOMALY":"300.9994","APOAPSIS":"548.032","RCS_SIZE":"LARGE","SEMIMAJOR_AXIS":"6925.379","ELEMENT_SET_NO":"999","ECCENTRICITY":"0.00011370","GP_ID":"185266638","LAUNCH_DATE":"2020-03-18","CLASSIFICATION_TYPE":"U","BSTAR":"0.00009319900000","PERIAPSIS":"546.457","EPOCH":"2021-09-22T16:37:57.864576","COUNTRY_CODE":"US","DECAY_DATE":null,"MEAN_MOTION":"15.06389976","RA_OF_ASC_NODE":"259.4763","FILE":"3123736"},{"SEMIMAJOR_AXIS":"6925.373","GP_ID":"185266866","ECCENTRICITY":"0.00016610","ELEMENT_SET_NO":"999","EPHEMERIS_TYPE":"0","MEAN_ANOMALY":"301.4127","PERIOD":"95.593","RCS_SIZE":"LARGE","APOAPSIS":"548.388","FILE":"3123736","RA_OF_ASC_NODE":"249.5890","CLASSIFICATION_TYPE":"U","BSTAR":"-0.00003234200000","LAUNCH_DATE":"2020-03-18","DECAY_DATE":null,"COUNTRY_CODE":"US","MEAN_MOTION":"15.06391969","PERIAPSIS":"546.088","EPOCH":"2021-09-22T16:02:07.702944","MEAN_MOTION_DDOT":"0.0000000000000","TIME_SYSTEM":"UTC","OBJECT_TYPE":"PAYLOAD","OBJECT_ID":"2020-019AR","TLE_LINE2":"2 45399  53.0533 249.5890 0001661  58.7024 301.4127 15.06391969 84423","NORAD_CAT_ID":"45399","TLE_LINE1":"1 45399U 20019AR  21265.66814471 -.00000763  00000-0 -32342-4 0  9991","SITE":"AFETR","REF_FRAME":"TEME","ARG_OF_PERICENTER":"58.7024","INCLINATION":"53.0533","CENTER_NAME":"EARTH","REV_AT_EPOCH":"8442","MEAN_MOTION_DOT":"-0.00000763","MEAN_ELEMENT_THEORY":"SGP4","OBJECT_NAME":"STARLINK-1255"},{"LAUNCH_DATE":"2020-03-18","CLASSIFICATION_TYPE":"U","BSTAR":"0.00008055900000","PERIAPSIS":"546.613","EPOCH":"2021-09-22T16:23:21.450624","DECAY_DATE":null,"MEAN_MOTION":"15.06397784","COUNTRY_CODE":"US","RA_OF_ASC_NODE":"249.5240","FILE":"3123736","PERIOD":"95.592","EPHEMERIS_TYPE":"0","MEAN_ANOMALY":"307.0859","APOAPSIS":"547.828","RCS_SIZE":"LARGE","SEMIMAJOR_AXIS":"6925.355","ELEMENT_SET_NO":"999","ECCENTRICITY":"0.00008770","GP_ID":"185266137","CENTER_NAME":"EARTH","MEAN_MOTION_DOT":"0.00000919","REV_AT_EPOCH":"8435","MEAN_ELEMENT_THEORY":"SGP4","OBJECT_NAME":"STARLINK-1213","TLE_LINE1":"1 45400U 20019AS  21265.68288716  .00000919  00000-0  80559-4 0  9997","REF_FRAME":"TEME","SITE":"AFETR","ARG_OF_PERICENTER":"53.0210","INCLINATION":"53.0542","OBJECT_ID":"2020-019AS","TLE_LINE2":"2 45400  53.0542 249.5240 0000877  53.0210 307.0859 15.06397784 84355","NORAD_CAT_ID":"45400","TIME_SYSTEM":"UTC","MEAN_MOTION_DDOT":"0.0000000000000","OBJECT_TYPE":"PAYLOAD"},{"RA_OF_ASC_NODE":"249.5370","FILE":"3123736","LAUNCH_DATE":"2020-03-18","CLASSIFICATION_TYPE":"U","BSTAR":"0.00008432400000","PERIAPSIS":"546.492","EPOCH":"2021-09-22T16:18:03.252384","COUNTRY_CODE":"US","DECAY_DATE":null,"MEAN_MOTION":"15.06392804","SEMIMAJOR_AXIS":"6925.371","ELEMENT_SET_NO":"999","ECCENTRICITY":"0.00010740","GP_ID":"185265887","PERIOD":"95.593","EPHEMERIS_TYPE":"0","MEAN_ANOMALY":"297.6398","APOAPSIS":"547.979","RCS_SIZE":"LARGE","TLE_LINE1":"1 45401U 20019AT  21265.67920431  .00000975  00000-0  84324-4 0  9990","REF_FRAME":"TEME","SITE":"AFETR","ARG_OF_PERICENTER":"62.4700","INCLINATION":"53.0538","CENTER_NAME":"EARTH","MEAN_MOTION_DOT":"0.00000975","REV_AT_EPOCH":"8442","MEAN_ELEMENT_THEORY":"SGP4","OBJECT_NAME":"STARLINK-1256","TIME_SYSTEM":"UTC","MEAN_MOTION_DDOT":"0.0000000000000","OBJECT_TYPE":"PAYLOAD","OBJECT_ID":"2020-019AT","NORAD_CAT_ID":"45401","TLE_LINE2":"2 45401  53.0538 249.5370 0001074  62.4700 297.6398 15.06392804 84421"}];
